{"type": "FeatureCollection", "features": [ {"type": "Feature", "properties": {"norad_id": 30996, "name": "FENGYUN 1C DEB", "group": "fengyun-1c-debris", "lat": 7.408721321613493, "lon": 74.90249691449263, "alt_km": 789.8072232710083, "timestamp": "2025-12-14T16:47:40.963674+00:00", "meta": {"OBJECT_NAME": "FENGYUN 1C DEB", "OBJECT_ID": "1999-025BCN", "EPOCH": "2025-12-13T23:33:11.155104", "MEAN_MOTION": 14.35421566, "ECCENTRICITY": 0.00500618, "INCLINATION": 98.9429, "RA_OF_ASC_NODE": 252.985, "ARG_OF_PERICENTER": 288.1946, "MEAN_ANOMALY": 134.4689, "EPHEMERIS_TYPE": 0, "CLASSIFICATION_TYPE": "U", "NORAD_CAT_ID": 30996, "ELEMENT_SET_NO": 999, "REV_AT_EPOCH": 97581, "BSTAR": 0.0011473904, "MEAN_MOTION_DOT": 3.296e-05, "MEAN_MOTION_DDOT": 0}, "tle": {"line1": "1 30996U 99025BCN 25347.98137911  .00003296  00000+0  11474-2 0  9990", "line2": "2 30996  98.9429 252.9850 0050061 288.1946 134.4689 14.35421566975813"}}, "geometry": {"type": "Point", "coordinates": [74.90249691449263, 7.408721321613493]}}, {"type": "Feature", "properties": {"norad_id": 30998, "name": "FENGYUN 1C DEB", "group": "fengyun-1c-debris", "lat": -79.88327844947116, "lon": 132.85201165724666, "alt_km": 739.0847259531902, "timestamp": "2025-12-14T16:47:40.963684+00:00", "meta": {"OBJECT_NAME": "FENGYUN 1C DEB", "OBJECT_ID": "1999-025BCQ", "EPOCH": "2025-12-13T17:00:54.830016", "MEAN_MOTION": 14.47928981, "ECCENTRICITY": 0.00127957, "INCLINATION": 98.8288, "RA_OF_ASC_NODE": 71.234, "ARG_OF_PERICENTER": 191.5489, "MEAN_ANOMALY": 321.5529, "EPHEMERIS_TYPE": 0, "CLASSIFICATION_TYPE": "U", "NORAD_CAT_ID": 30998, "ELEMENT_SET_NO": 999, "REV_AT_EPOCH": 97204, "BSTAR": 0.0029348419, "MEAN_MOTION_DOT": 0.00010862, "MEAN_MOTION_DDOT": 0}, "tle": {"line1": "1 30998U 99025BCQ 25347.70896794  .00010862  00000+0  29348-2 0  9999", "line2": "2 30998  98.8288  71.2340 0012795 191.5489 321.5529 14.47928981972044"}}, "geometry": {"type": "Point", "coordinates": [132.85201165724666, -79.88327844947116]}}, {"type": "Feature", "properties": {"norad_id": 30999, "name": "FENGYUN 1C DEB", "group": "fengyun-1c-debris", "lat": 72.80278921633543, "lon": 13.769321193173596, "alt_km": 744.855692550098, "timestamp": "2025-12-14T16:47:40.963694+00:00", "meta": {"OBJECT_NAME": "FENGYUN 1C DEB", "OBJECT_ID": "1999-025BCR", "EPOCH": "2025-12-13T22:12:23.137920", "MEAN_MOTION": 14.58427373, "ECCENTRICITY": 0.01129628, "INCLINATION": 99.091, "RA_OF_ASC_NODE": 161.7682, "ARG_OF_PERICENTER": 334.3534, "MEAN_ANOMALY": 25.2085, "EPHEMERIS_TYPE": 0, "CLASSIFICATION_TYPE": "U", "NORAD_CAT_ID": 30999, "ELEMENT_SET_NO": 999, "REV_AT_EPOCH": 98848, "BSTAR": 0.00069900856, "MEAN_MOTION_DOT": 3.479e-05, "MEAN_MOTION_DDOT": 0}, "tle": {"line1": "1 30999U 99025BCR 25347.92526780  .00003479  00000+0  69901-3 0  9995", "line2": "2 30999  99.0910 161.7682 0112962 334.3534  25.2085 14.58427373988480"}}, "geometry": {"type": "Point", "coordinates": [13.769321193173596, 72.80278921633543]}}, {"type": "Feature", "properties": {"norad_id": 31000, "name": "FENGYUN 1C DEB", "group": "fengyun-1c-debris", "lat": 57.70279609909179, "lon": -150.82280005523708, "alt_km": 795.317974122795, "timestamp": "2025-12-14T16:47:40.963704+00:00", "meta": {"OBJECT_NAME": "FENGYUN 1C DEB", "OBJECT_ID": "1999-025BCS", "EPOCH": "2025-12-13T01:11:27.045312", "MEAN_MOTION": 14.09642304, "ECCENTRICITY": 0.01653823, "INCLINATION": 97.5667, "RA_OF_ASC_NODE": 15.6494, "ARG_OF_PERICENTER": 65.3385, "MEAN_ANOMALY": 325.1658, "EPHEMERIS_TYPE": 0, "CLASSIFICATION_TYPE": "U", "NORAD_CAT_ID": 31000, "ELEMENT_SET_NO": 999, "REV_AT_EPOCH": 69961, "BSTAR": 0.00071598586, "MEAN_MOTION_DOT": 1.392e-05, "MEAN_MOTION_DDOT": 0}, "tle": {"line1": "1 31000U 99025BCS 25347.04961858  .00001392  00000+0  71599-3 0  9999", "line2": "2 31000  97.5667  15.6494 0165382  65.3385 325.1658 14.09642304699614"}}, "geometry": {"type": "Point", "coordinates": [-150.82280005523708, 57.70279609909179]}}, {"type": "Feature", "properties": {"norad_id": 31001, "name": "FENGYUN 1C DEB", "group": "fengyun-1c-debris", "lat": 57.90748189078436, "lon": 56.855628617494, "alt_km": 649.0042791119704, "timestamp": "2025-12-14T16:47:40.963714+00:00", "meta": {"OBJECT_NAME": "FENGYUN 1C DEB", "OBJECT_ID": "1999-025BCT", "EPOCH": "2025-12-12T02:39:27.878112", "MEAN_MOTION": 14.42858877, "ECCENTRICITY": 0.01468358, "INCLINATION": 99.2719, "RA_OF_ASC_NODE": 218.9415, "ARG_OF_PERICENTER": 154.3626, "MEAN_ANOMALY": 206.4937, "EPHEMERIS_TYPE": 0, "CLASSIFICATION_TYPE": "U", "NORAD_CAT_ID": 31001, "ELEMENT_SET_NO": 999, "REV_AT_EPOCH": 98197, "BSTAR": 0.00062559391, "MEAN_MOTION_DOT": 2.323e-05, "MEAN_MOTION_DDOT": 0}, "tle": {"line1": "1 31001U 99025BCT 25346.11073933  .00002323  00000+0  62559-3 0  9996", "line2": "2 31001  99.2719 218.9415 0146835 154.3626 206.4937 14.42858877981977"}}, "geometry": {"type": "Point", "coordinates": [56.855628617494, 57.90748189078436]}}, {"type": "Feature", "properties": {"norad_id": 31002, "name": "FENGYUN 1C DEB", "group": "fengyun-1c-debris", "lat": -35.83739180517076, "lon": 174.1127423970091, "alt_km": 944.5753169710351, "timestamp": "2025-12-14T16:47:40.963724+00:00", "meta": {"OBJECT_NAME": "FENGYUN 1C DEB", "OBJECT_ID": "1999-025BCU", "EPOCH": "2025-12-13T20:01:20.214336", "MEAN_MOTION": 13.99204336, "ECCENTRICITY": 0.00989071, "INCLINATION": 98.886, "RA_OF_ASC_NODE": 359.7606, "ARG_OF_PERICENTER": 344.609, "MEAN_ANOMALY": 195.2194, "EPHEMERIS_TYPE": 0, "CLASSIFICATION_TYPE": "U", "NORAD_CAT_ID": 31002, "ELEMENT_SET_NO": 999, "REV_AT_EPOCH": 95620, "BSTAR": 0.00037607264, "MEAN_MOTION_DOT": 5.26e-06, "MEAN_MOTION_DDOT": 0}, "tle": {"line1": "1 31002U 99025BCU 25347.83426174  .00000526  00000+0  37607-3 0  9995", "line2": "2 31002  98.8860 359.7606 0098907 344.6090 195.2194 13.99204336956205"}}, "geometry": {"type": "Point", "coordinates": [174.1127423970091, -35.83739180517076]}}, {"type": "Feature", "properties": {"norad_id": 31003, "name": "FENGYUN 1C DEB", "group": "fengyun-1c-debris", "lat": 31.46548560346672, "lon": 60.03886628013276, "alt_km": 837.5235647353948, "timestamp": "2025-12-14T16:47:40.963735+00:00", "meta": {"OBJECT_NAME": "FENGYUN 1C DEB", "OBJECT_ID": "1999-025BCV", "EPOCH": "2025-12-13T03:33:46.980288", "MEAN_MOTION": 14.24700829, "ECCENTRICITY": 0.00416757, "INCLINATION": 98.8432, "RA_OF_ASC_NODE": 63.944, "ARG_OF_PERICENTER": 212.8904, "MEAN_ANOMALY": 146.968, "EPHEMERIS_TYPE": 0, "CLASSIFICATION_TYPE": "U", "NORAD_CAT_ID": 31003, "ELEMENT_SET_NO": 999, "REV_AT_EPOCH": 96515, "BSTAR": 0.0021221764, "MEAN_MOTION_DOT": 4.941e-05, "MEAN_MOTION_DDOT": 0}, "tle": {"line1": "1 31003U 99025BCV 25347.14846042  .00004941  00000+0  21222-2 0  9990", "line2": "2 31003  98.8432  63.9440 0041675 212.8904 146.9680 14.24700829965155"}}, "geometry": {"type": "Point", "coordinates": [60.03886628013276, 31.46548560346672]}}, {"type": "Feature", "properties": {"norad_id": 31005, "name": "FENGYUN 1C DEB", "group": "fengyun-1c-debris", "lat": 27.84374271231953, "lon": 117.6928982161942, "alt_km": 899.7552913780755, "timestamp": "2025-12-14T16:47:40.963745+00:00", "meta": {"OBJECT_NAME": "FENGYUN 1C DEB", "OBJECT_ID": "1999-025BCX", "EPOCH": "2025-12-12T20:16:39.526752", "MEAN_MOTION": 13.83279712, "ECCENTRICITY": 0.01806635, "INCLINATION": 98.6126, "RA_OF_ASC_NODE": 120.5853, "ARG_OF_PERICENTER": 325.1186, "MEAN_ANOMALY": 189.343, "EPHEMERIS_TYPE": 0, "CLASSIFICATION_TYPE": "U", "NORAD_CAT_ID": 31005, "ELEMENT_SET_NO": 999, "REV_AT_EPOCH": 94282, "BSTAR": 0.0015552407, "MEAN_MOTION_DOT": 1.896e-05, "MEAN_MOTION_DDOT": 0}, "tle": {"line1": "1 31005U 99025BCX 25346.84490193  .00001896  00000+0  15552-2 0  9995", "line2": "2 31005  98.6126 120.5853 0180663 325.1186 189.3430 13.83279712942823"}}, "geometry": {"type": "Point", "coordinates": [117.6928982161942, 27.84374271231953]}}, {"type": "Feature", "properties": {"norad_id": 31007, "name": "FENGYUN 1C DEB", "group": "fengyun-1c-debris", "lat": -79.6034924335551, "lon": 109.6436788693753, "alt_km": 734.1547232078929, "timestamp": "2025-12-14T16:47:40.963755+00:00", "meta": {"OBJECT_NAME": "FENGYUN 1C DEB", "OBJECT_ID": "1999-025BCZ", "EPOCH": "2025-12-13T05:01:04.367712", "MEAN_MOTION": 14.58666919, "ECCENTRICITY": 0.0067455, "INCLINATION": 98.0876, "RA_OF_ASC_NODE": 338.9995, "ARG_OF_PERICENTER": 36.5937, "MEAN_ANOMALY": 323.9843, "EPHEMERIS_TYPE": 0, "CLASSIFICATION_TYPE": "U", "NORAD_CAT_ID": 31007, "ELEMENT_SET_NO": 999, "REV_AT_EPOCH": 98101, "BSTAR": 0.0037929171, "MEAN_MOTION_DOT": 0.00018241, "MEAN_MOTION_DDOT": 0}, "tle": {"line1": "1 31007U 99025BCZ 25347.20907833  .00018241  00000+0  37929-2 0  9996", "line2": "2 31007  98.0876 338.9995 0067455  36.5937 323.9843 14.58666919981013"}}, "geometry": {"type": "Point", "coordinates": [109.6436788693753, -79.6034924335551]}}, {"type": "Feature", "properties": {"norad_id": 31009, "name": "FENGYUN 1C DEB", "group": "fengyun-1c-debris", "lat": 56.61676328686432, "lon": 178.22226370104278, "alt_km": 899.7065668286259, "timestamp": "2025-12-14T16:47:40.963766+00:00", "meta": {"OBJECT_NAME": "FENGYUN 1C DEB", "OBJECT_ID": "1999-025BDB", "EPOCH": "2025-12-13T23:19:48.620064", "MEAN_MOTION": 14.00365126, "ECCENTRICITY": 0.00528869, "INCLINATION": 98.8973, "RA_OF_ASC_NODE": 343.7624, "ARG_OF_PERICENTER": 233.7574, "MEAN_ANOMALY": 182.5727, "EPHEMERIS_TYPE": 0, "CLASSIFICATION_TYPE": "U", "NORAD_CAT_ID": 31009, "ELEMENT_SET_NO": 999, "REV_AT_EPOCH": 95878, "BSTAR": 0.00018476788, "MEAN_MOTION_DOT": 2.34e-06, "MEAN_MOTION_DDOT": 0}, "tle": {"line1": "1 31009U 99025BDB 25347.97209051  .00000234  00000+0  18477-3 0  9990", "line2": "2 31009  98.8973 343.7624 0052886 233.7574 182.5727 14.00365126958785"}}, "geometry": {"type": "Point", "coordinates": [178.22226370104278, 56.61676328686432]}}]}